CCSDS_OMM_VERS = 2.0
CREATION_DATE  = 
ORIGINATOR     = 

OBJECT_NAME    = ORBVIEW 2 (SEASTAR)
OBJECT_ID      = 1997-037A
CENTER_NAME    = EARTH
REF_FRAME      = TEME
TIME_SYSTEM    = UTC
MEAN_ELEMENT_THEORY = SGP/SGP4

EPOCH          = 2025-11-21T10:41:50.888832
MEAN_MOTION    = 14.35394132
ECCENTRICITY   = .0002691
INCLINATION    = 98.8452
RA_OF_ASC_NODE = 121.9856
ARG_OF_PERICENTER = 40.5864
MEAN_ANOMALY   = 319.5521

EPHEMERIS_TYPE = 0
CLASSIFICATION_TYPE = U
NORAD_CAT_ID   = 24883
ELEMENT_SET_NO = 999
REV_AT_EPOCH   = 49294
BSTAR          = .13683E-3
MEAN_MOTION_DOT = .346E-5
MEAN_MOTION_DDOT = 0

CCSDS_OMM_VERS = 2.0
CREATION_DATE  = 
ORIGINATOR     = 

OBJECT_NAME    = SL-16 R/B
OBJECT_ID      = 1998-043G
CENTER_NAME    = EARTH
REF_FRAME      = TEME
TIME_SYSTEM    = UTC
MEAN_ELEMENT_THEORY = SGP/SGP4

EPOCH          = 2025-11-21T21:20:34.072800
MEAN_MOTION    = 14.26018098
ECCENTRICITY   = .0009358
INCLINATION    = 98.8091
RA_OF_ASC_NODE = 273.5942
ARG_OF_PERICENTER = 333.0216
MEAN_ANOMALY   = 27.0476

EPHEMERIS_TYPE = 0
CLASSIFICATION_TYPE = U
NORAD_CAT_ID   = 25400
ELEMENT_SET_NO = 999
REV_AT_EPOCH   = 42362
BSTAR          = .52269E-4
MEAN_MOTION_DOT = .8E-6
MEAN_MOTION_DDOT = 0

CCSDS_OMM_VERS = 2.0
CREATION_DATE  = 
ORIGINATOR     = 

OBJECT_NAME    = SL-16 R/B
OBJECT_ID      = 1998-045B
CENTER_NAME    = EARTH
REF_FRAME      = TEME
TIME_SYSTEM    = UTC
MEAN_ELEMENT_THEORY = SGP/SGP4

EPOCH          = 2025-11-21T15:29:01.313376
MEAN_MOTION    = 14.16168853
ECCENTRICITY   = .0008214
INCLINATION    = 71.0123
RA_OF_ASC_NODE = 48.7868
ARG_OF_PERICENTER = 206.3796
MEAN_ANOMALY   = 153.6910

EPHEMERIS_TYPE = 0
CLASSIFICATION_TYPE = U
NORAD_CAT_ID   = 25407
ELEMENT_SET_NO = 999
REV_AT_EPOCH   = 41180
BSTAR          = .59819E-4
MEAN_MOTION_DOT = .71E-6
MEAN_MOTION_DDOT = 0

CCSDS_OMM_VERS = 2.0
CREATION_DATE  = 
ORIGINATOR     = 

OBJECT_NAME    = ISS (ZARYA)
OBJECT_ID      = 1998-067A
CENTER_NAME    = EARTH
REF_FRAME      = TEME
TIME_SYSTEM    = UTC
MEAN_ELEMENT_THEORY = SGP/SGP4

EPOCH          = 2025-11-21T20:02:32.875872
MEAN_MOTION    = 15.48969112
ECCENTRICITY   = .0003994
INCLINATION    = 51.6324
RA_OF_ASC_NODE = 245.9468
ARG_OF_PERICENTER = 153.9795
MEAN_ANOMALY   = 206.1394

EPHEMERIS_TYPE = 0
CLASSIFICATION_TYPE = U
NORAD_CAT_ID   = 25544
ELEMENT_SET_NO = 999
REV_AT_EPOCH   = 53961
BSTAR          = .2737E-3
MEAN_MOTION_DOT = .14642E-3
MEAN_MOTION_DDOT = 0

CCSDS_OMM_VERS = 2.0
CREATION_DATE  = 
ORIGINATOR     = 

OBJECT_NAME    = CZ-4B R/B
OBJECT_ID      = 1999-025C
CENTER_NAME    = EARTH
REF_FRAME      = TEME
TIME_SYSTEM    = UTC
MEAN_ELEMENT_THEORY = SGP/SGP4

EPOCH          = 2025-11-21T17:37:40.717056
MEAN_MOTION    = 14.18236116
ECCENTRICITY   = .00361
INCLINATION    = 98.6798
RA_OF_ASC_NODE = 7.4813
ARG_OF_PERICENTER = 296.1110
MEAN_ANOMALY   = 171.5106

EPHEMERIS_TYPE = 0
CLASSIFICATION_TYPE = U
NORAD_CAT_ID   = 25732
ELEMENT_SET_NO = 999
REV_AT_EPOCH   = 37286
BSTAR          = .68989E-4
MEAN_MOTION_DOT = .99E-6
MEAN_MOTION_DDOT = 0

CCSDS_OMM_VERS = 2.0
CREATION_DATE  = 
ORIGINATOR     = 

OBJECT_NAME    = OKEAN-O
OBJECT_ID      = 1999-039A
CENTER_NAME    = EARTH
REF_FRAME      = TEME
TIME_SYSTEM    = UTC
MEAN_ELEMENT_THEORY = SGP/SGP4

EPOCH          = 2025-11-21T18:21:51.527808
MEAN_MOTION    = 14.80109793
ECCENTRICITY   = .0001158
INCLINATION    = 97.9632
RA_OF_ASC_NODE = 21.6458
ARG_OF_PERICENTER = 68.1084
MEAN_ANOMALY   = 292.0251

EPHEMERIS_TYPE = 0
CLASSIFICATION_TYPE = U
NORAD_CAT_ID   = 25860
ELEMENT_SET_NO = 999
REV_AT_EPOCH   = 41842
BSTAR          = .11117E-3
MEAN_MOTION_DOT = .791E-5
MEAN_MOTION_DDOT = 0

CCSDS_OMM_VERS = 2.0
CREATION_DATE  = 
ORIGINATOR     = 

OBJECT_NAME    = SL-16 R/B
OBJECT_ID      = 1999-039B
CENTER_NAME    = EARTH
REF_FRAME      = TEME
TIME_SYSTEM    = UTC
MEAN_ELEMENT_THEORY = SGP/SGP4

EPOCH          = 2025-11-21T17:06:37.224576
MEAN_MOTION    = 14.81542344
ECCENTRICITY   = .0013587
INCLINATION    = 98.0155
RA_OF_ASC_NODE = 19.8599
ARG_OF_PERICENTER = 245.6555
MEAN_ANOMALY   = 114.3239

EPHEMERIS_TYPE = 0
CLASSIFICATION_TYPE = U
NORAD_CAT_ID   = 25861
ELEMENT_SET_NO = 999
REV_AT_EPOCH   = 42087
BSTAR          = .92667E-4
MEAN_MOTION_DOT = .674E-5
MEAN_MOTION_DDOT = 0

CCSDS_OMM_VERS = 2.0
CREATION_DATE  = 
ORIGINATOR     = 

OBJECT_NAME    = DELTA 2 R/B
OBJECT_ID      = 1999-041E
CENTER_NAME    = EARTH
REF_FRAME      = TEME
TIME_SYSTEM    = UTC
MEAN_ELEMENT_THEORY = SGP/SGP4

EPOCH          = 2025-11-21T07:51:47.598336
MEAN_MOTION    = 14.11324859
ECCENTRICITY   = .050489
INCLINATION    = 51.7633
RA_OF_ASC_NODE = 13.9151
ARG_OF_PERICENTER = 28.6698
MEAN_ANOMALY   = 334.1024

EPHEMERIS_TYPE = 0
CLASSIFICATION_TYPE = U
NORAD_CAT_ID   = 25876
ELEMENT_SET_NO = 999
REV_AT_EPOCH   = 34772
BSTAR          = .23452E-3
MEAN_MOTION_DOT = .1211E-4
MEAN_MOTION_DDOT = 0

CCSDS_OMM_VERS = 2.0
CREATION_DATE  = 
ORIGINATOR     = 

OBJECT_NAME    = HELIOS 1B
OBJECT_ID      = 1999-064A
CENTER_NAME    = EARTH
REF_FRAME      = TEME
TIME_SYSTEM    = UTC
MEAN_ELEMENT_THEORY = SGP/SGP4

EPOCH          = 2025-11-21T17:52:16.474368
MEAN_MOTION    = 14.87158866
ECCENTRICITY   = .0002505
INCLINATION    = 98.1754
RA_OF_ASC_NODE = 219.7893
ARG_OF_PERICENTER = 71.5677
MEAN_ANOMALY   = 288.5810

EPHEMERIS_TYPE = 0
CLASSIFICATION_TYPE = U
NORAD_CAT_ID   = 25977
ELEMENT_SET_NO = 999
REV_AT_EPOCH   = 66921
BSTAR          = .22609E-3
MEAN_MOTION_DOT = .1974E-4
MEAN_MOTION_DDOT = 0

CCSDS_OMM_VERS = 2.0
CREATION_DATE  = 
ORIGINATOR     = 

OBJECT_NAME    = TERRA
OBJECT_ID      = 1999-068A
CENTER_NAME    = EARTH
REF_FRAME      = TEME
TIME_SYSTEM    = UTC
MEAN_ELEMENT_THEORY = SGP/SGP4

EPOCH          = 2025-11-21T20:31:06.943008
MEAN_MOTION    = 14.60917778
ECCENTRICITY   = .0002939
INCLINATION    = 97.9777
RA_OF_ASC_NODE = 18.3022
ARG_OF_PERICENTER = 140.8169
MEAN_ANOMALY   = 335.3613

EPHEMERIS_TYPE = 0
CLASSIFICATION_TYPE = U
NORAD_CAT_ID   = 25994
ELEMENT_SET_NO = 999
REV_AT_EPOCH   = 37933
BSTAR          = .12093E-3
MEAN_MOTION_DOT = .547E-5
MEAN_MOTION_DDOT = 0

CCSDS_OMM_VERS = 2.0
CREATION_DATE  = 
ORIGINATOR     = 

OBJECT_NAME    = SL-16 R/B
OBJECT_ID      = 2000-006B
CENTER_NAME    = EARTH
REF_FRAME      = TEME
TIME_SYSTEM    = UTC
MEAN_ELEMENT_THEORY = SGP/SGP4

EPOCH          = 2025-11-21T10:05:40.043904
MEAN_MOTION    = 14.15801195
ECCENTRICITY   = .0017328
INCLINATION    = 71.0019
RA_OF_ASC_NODE = 325.4847
ARG_OF_PERICENTER = 338.5354
MEAN_ANOMALY   = 21.5040

EPHEMERIS_TYPE = 0
CLASSIFICATION_TYPE = U
NORAD_CAT_ID   = 26070
ELEMENT_SET_NO = 999
REV_AT_EPOCH   = 33323
BSTAR          = -.14487E-4
MEAN_MOTION_DOT = -.76E-6
MEAN_MOTION_DDOT = 0

CCSDS_OMM_VERS = 2.0
CREATION_DATE  = 
ORIGINATOR     = 

OBJECT_NAME    = TITAN 4B R/B
OBJECT_ID      = 2000-047B
CENTER_NAME    = EARTH
REF_FRAME      = TEME
TIME_SYSTEM    = UTC
MEAN_ELEMENT_THEORY = SGP/SGP4

EPOCH          = 2025-11-21T19:01:55.136064
MEAN_MOTION    = 15.08566131
ECCENTRICITY   = .004078
INCLINATION    = 67.9901
RA_OF_ASC_NODE = 343.6753
ARG_OF_PERICENTER = 169.3569
MEAN_ANOMALY   = 190.8453

EPHEMERIS_TYPE = 0
CLASSIFICATION_TYPE = U
NORAD_CAT_ID   = 26474
ELEMENT_SET_NO = 999
REV_AT_EPOCH   = 37663
BSTAR          = .23971E-3
MEAN_MOTION_DOT = .3691E-4
MEAN_MOTION_DDOT = 0

