ORBVIEW 2 (SEASTAR)     
1 24883U 97037A   25325.44572788  .00000346  00000+0  13683-3 0  9999
2 24883  98.8452 121.9856 0002691  40.5864 319.5521 14.35394132492949
SL-16 R/B               
1 25400U 98043G   25325.88928325  .00000080  00000+0  52269-4 0  9992
2 25400  98.8091 273.5942 0009358 333.0216  27.0476 14.26018098423625
SL-16 R/B               
1 25407U 98045B   25325.64515409  .00000071  00000+0  59819-4 0  9998
2 25407  71.0123  48.7868 0008214 206.3796 153.6910 14.16168853411805
ISS (ZARYA)             
1 25544U 98067A   25325.83510273  .00014642  00000+0  27370-3 0  9994
2 25544  51.6324 245.9468 0003994 153.9795 206.1394 15.48969112539610
CZ-4B R/B               
1 25732U 99025C   25325.73449904  .00000099  00000+0  68989-4 0  9992
2 25732  98.6798   7.4813 0036100 296.1110 171.5106 14.18236116372861
OKEAN-O                 
1 25860U 99039A   25325.76517972  .00000791  00000+0  11117-3 0  9992
2 25860  97.9632  21.6458 0001158  68.1084 292.0251 14.80109793418429
SL-16 R/B               
1 25861U 99039B   25325.71293084  .00000674  00000+0  92667-4 0  9993
2 25861  98.0155  19.8599 0013587 245.6555 114.3239 14.81542344420879
DELTA 2 R/B             
1 25876U 99041E   25325.32763424  .00001211  00000+0  23452-3 0  9992
2 25876  51.7633  13.9151 0504890  28.6698 334.1024 14.11324859347728
HELIOS 1B               
1 25977U 99064A   25325.74463512  .00001974  00000+0  22609-3 0  9999
2 25977  98.1754 219.7893 0002505  71.5677 288.5810 14.87158866669210
TERRA                   
1 25994U 99068A   25325.85494147  .00000547  00000+0  12093-3 0  9993
2 25994  97.9777  18.3022 0002939 140.8169 335.3613 14.60917778379334
SL-16 R/B               
1 26070U 00006B   25325.42060236 -.00000076  00000+0 -14487-4 0  9993
2 26070  71.0019 325.4847 0017328 338.5354  21.5040 14.15801195333231
TITAN 4B R/B            
1 26474U 00047B   25325.79299926  .00003691  00000+0  23971-3 0  9997
2 26474  67.9901 343.6753 0040780 169.3569 190.8453 15.08566131376637
